IRIDIUM 116             
1 43072U 17083C   25299.83929583  .00000294  00000+0  97871-4 0  9999
2 43072  86.3965  59.5342 0001801  96.4327 263.7074 14.34218462410722
IRIDIUM 130             
1 43073U 17083D   25299.80758270  .00000241  00000+0  79056-4 0  9997
2 43073  86.3972  59.8002 0001755  87.6280 272.5117 14.34217982410660
IRIDIUM 151             
1 43074U 17083E   25299.85198073  .00000446  00000+0  15231-3 0  9993
2 43074  86.3968  59.5815 0001884  95.9855 264.1555 14.34216087410699
IRIDIUM 134             
1 43075U 17083F   25299.82026725  .00000449  00000+0  15321-3 0  9998
2 43075  86.3968  59.5996 0001880  88.4423 271.6988 14.34216613410658
IRIDIUM 137             
1 43076U 17083G   25299.76318396  .00000375  00000+0  12679-3 0  9991
2 43076  86.3969  59.7115 0001775 109.3956 250.7432 14.34219088410710
IRIDIUM 141             
1 43077U 17083H   25299.82661155  .00000263  00000+0  86681-4 0  9994
2 43077  86.3965  59.5288 0002171  94.3257 265.8187 14.34217992410721
IRIDIUM 153             
1 43078U 17083J   25299.77879060  .00000140  00000+0  42776-4 0  9996
2 43078  86.4010  28.0334 0002417  90.7545 269.3927 14.34218121411828
IRIDIUM 131             
1 43079U 17083K   25299.81392617  .00000255  00000+0  83941-4 0  9996
2 43079  86.3968  59.7047 0002109  94.5705 265.5732 14.34218473410652
